[{"OBJECT_NAME":"STARLINK-6216","OBJECT_ID":"2023-083T","EPOCH":"2026-03-09T10:30:50.012640","MEAN_MOTION":15.02535415,"ECCENTRICITY":0.00013252,"INCLINATION":43.0042,"RA_OF_ASC_NODE":83.0492,"ARG_OF_PERICENTER":262.8072,"MEAN_ANOMALY":97.2619,"EPHEMERIS_TYPE":0,"CLASSIFICATION_TYPE":"U","NORAD_CAT_ID":56893,"ELEMENT_SET_NO":999,"REV_AT_EPOCH":15175,"BSTAR":-1.9915865e-5,"MEAN_MOTION_DOT":-4.73e-6,"MEAN_MOTION_DDOT":0},{"OBJECT_NAME":"CZ-6A DEB","OBJECT_ID":"2022-151XN","EPOCH":"2026-03-09T03:53:00.747744","MEAN_MOTION":14.96908336,"ECCENTRICITY":0.00415985,"INCLINATION":98.5971,"RA_OF_ASC_NODE":139.8978,"ARG_OF_PERICENTER":176.4411,"MEAN_ANOMALY":183.7112,"EPHEMERIS_TYPE":0,"CLASSIFICATION_TYPE":"U","NORAD_CAT_ID":55516,"ELEMENT_SET_NO":999,"REV_AT_EPOCH":17147,"BSTAR":0.005138713,"MEAN_MOTION_DOT":0.00060444,"MEAN_MOTION_DDOT":0}]
